{
  "type": "FeatureCollection",
  "features": [
    {
      "type": "Feature",
      "properties": {
        "norad_id": 67131,
        "name": "ZIYUAN 3-04 (ZY 3-04)",
        "group": "last-30-days",
        "lat": 48.22413212311974,
        "lon": -96.63661829339091,
        "alt_km": 496.16926306169626,
        "timestamp": "2025-12-26T20:30:44.703852+00:00",
        "meta_object_name": "ZIYUAN 3-04 (ZY 3-04)",
        "meta_object_id": "2025-300A",
        "meta_epoch": "2025-12-21T18:22:34.187808",
        "meta_mean_motion": 15.21179479,
        "meta_eccentricity": 0.00027623,
        "meta_inclination": 97.4922,
        "meta_ra_of_asc_node": 69.8294,
        "meta_arg_of_pericenter": 167.6924,
        "meta_mean_anomaly": 192.438,
        "meta_ephemeris_type": 0,
        "meta_classification_type": "U",
        "meta_norad_cat_id": 67131,
        "meta_element_set_no": 999,
        "meta_rev_at_epoch": 86,
        "meta_bstar": 6.5769783e-05,
        "meta_mean_motion_dot": 1.396e-05,
        "meta_mean_motion_ddot": 0,
        "tle_line1": "1 67131U 25300A   25355.76567347  .00001396  00000+0  65770-4 0  9990",
        "tle_line2": "2 67131  97.4922  69.8294 0002762 167.6924 192.4380 15.21179479   860"
      },
      "geometry": {
        "type": "Point",
        "coordinates": [
          -96.63661829339091,
          48.22413212311974
        ]
      }
    },
    {
      "type": "Feature",
      "properties": {
        "norad_id": 67132,
        "name": "CZ-4B R/B",
        "group": "last-30-days",
        "lat": -54.731218240089994,
        "lon": 86.54627115435437,
        "alt_km": 284.89177806593125,
        "timestamp": "2025-12-26T20:30:44.703862+00:00",
        "meta_object_name": "CZ-4B R/B",
        "meta_object_id": "2025-300B",
        "meta_epoch": "2025-12-18T16:13:04.609056",
        "meta_mean_motion": 15.63831828,
        "meta_eccentricity": 0.01741973,
        "meta_inclination": 97.5563,
        "meta_ra_of_asc_node": 66.966,
        "meta_arg_of_pericenter": 9.3582,
        "meta_mean_anomaly": 351.0851,
        "meta_ephemeris_type": 0,
        "meta_classification_type": "U",
        "meta_norad_cat_id": 67132,
        "meta_element_set_no": 999,
        "meta_rev_at_epoch": 40,
        "meta_bstar": 0.00019566238,
        "meta_mean_motion_dot": 0.00040543,
        "meta_mean_motion_ddot": 2.652968e-06,
        "tle_line1": "1 67132U 25300B   25352.67574779  .00040543  26530-5  19566-3 0  9995",
        "tle_line2": "2 67132  97.5563  66.9660 0174197   9.3582 351.0851 15.63831828   407"
      },
      "geometry": {
        "type": "Point",
        "coordinates": [
          86.54627115435437,
          -54.731218240089994
        ]
      }
    },
    {
      "type": "Feature",
      "properties": {
        "norad_id": 67133,
        "name": "KUIPER-00144",
        "group": "last-30-days",
        "lat": 31.30267091076879,
        "lon": -151.4619702787339,
        "alt_km": 451.3748418529185,
        "timestamp": "2025-12-26T20:30:44.703871+00:00",
        "meta_object_name": "KUIPER-00144",
        "meta_object_id": "2025-301A",
        "meta_epoch": "2025-12-26T12:06:06.293664",
        "meta_mean_motion": 15.35470226,
        "meta_eccentricity": 0.00061783,
        "meta_inclination": 51.871,
        "meta_ra_of_asc_node": 58.7589,
        "meta_arg_of_pericenter": 122.7409,
        "meta_mean_anomaly": 237.4173,
        "meta_ephemeris_type": 0,
        "meta_classification_type": "U",
        "meta_norad_cat_id": 67133,
        "meta_element_set_no": 999,
        "meta_rev_at_epoch": 248,
        "meta_bstar": 0.0010059147,
        "meta_mean_motion_dot": 0.00034998,
        "meta_mean_motion_ddot": 0,
        "tle_line1": "1 67133U 25301A   25360.50423951  .00034998  00000+0  10059-2 0  9995",
        "tle_line2": "2 67133  51.8710  58.7589 0006178 122.7409 237.4173 15.35470226  2489"
      },
      "geometry": {
        "type": "Point",
        "coordinates": [
          -151.4619702787339,
          31.30267091076879
        ]
      }
    },
    {
      "type": "Feature",
      "properties": {
        "norad_id": 67134,
        "name": "KUIPER-00164",
        "group": "last-30-days",
        "lat": 10.685140412352126,
        "lon": -131.5121049239771,
        "alt_km": 455.5469580552035,
        "timestamp": "2025-12-26T20:30:44.703880+00:00",
        "meta_object_name": "KUIPER-00164",
        "meta_object_id": "2025-301B",
        "meta_epoch": "2025-12-26T13:32:48.333120",
        "meta_mean_motion": 15.36165784,
        "meta_eccentricity": 0.00032477,
        "meta_inclination": 51.8727,
        "meta_ra_of_asc_node": 58.4118,
        "meta_arg_of_pericenter": 104.671,
        "meta_mean_anomaly": 255.4637,
        "meta_ephemeris_type": 0,
        "meta_classification_type": "U",
        "meta_norad_cat_id": 67134,
        "meta_element_set_no": 999,
        "meta_rev_at_epoch": 267,
        "meta_bstar": 0.0014331123,
        "meta_mean_motion_dot": 0.0005125,
        "meta_mean_motion_ddot": 0,
        "tle_line1": "1 67134U 25301B   25360.56444830  .00051250  00000+0  14331-2 0  9998",
        "tle_line2": "2 67134  51.8727  58.4118 0003247 104.6710 255.4637 15.36165784  2678"
      },
      "geometry": {
        "type": "Point",
        "coordinates": [
          -131.5121049239771,
          10.685140412352126
        ]
      }
    },
    {
      "type": "Feature",
      "properties": {
        "norad_id": 67135,
        "name": "KUIPER-00175",
        "group": "last-30-days",
        "lat": -3.8736619501434397,
        "lon": -119.98637462661954,
        "alt_km": 458.19500174240056,
        "timestamp": "2025-12-26T20:30:44.703889+00:00",
        "meta_object_name": "KUIPER-00175",
        "meta_object_id": "2025-301C",
        "meta_epoch": "2025-12-26T15:01:44.676192",
        "meta_mean_motion": 15.36621035,
        "meta_eccentricity": 0.00022719,
        "meta_inclination": 51.8744,
        "meta_ra_of_asc_node": 58.0692,
        "meta_arg_of_pericenter": 59.7703,
        "meta_mean_anomaly": 300.3508,
        "meta_ephemeris_type": 0,
        "meta_classification_type": "U",
        "meta_norad_cat_id": 67135,
        "meta_element_set_no": 999,
        "meta_rev_at_epoch": 257,
        "meta_bstar": 0.0008372221,
        "meta_mean_motion_dot": 0.00030136,
        "meta_mean_motion_ddot": 0,
        "tle_line1": "1 67135U 25301C   25360.62621153  .00030136  00000+0  83722-3 0  9992",
        "tle_line2": "2 67135  51.8744  58.0692 0002271  59.7703 300.3508 15.36621035  2571"
      },
      "geometry": {
        "type": "Point",
        "coordinates": [
          -119.98637462661954,
          -3.8736619501434397
        ]
      }
    },
    {
      "type": "Feature",
      "properties": {
        "norad_id": 67136,
        "name": "KUIPER-00179",
        "group": "last-30-days",
        "lat": 5.122266055504706,
        "lon": -127.04499164978365,
        "alt_km": 456.86802556360544,
        "timestamp": "2025-12-26T20:30:44.703898+00:00",
        "meta_object_name": "KUIPER-00179",
        "meta_object_id": "2025-301D",
        "meta_epoch": "2025-12-26T15:04:39.314784",
        "meta_mean_motion": 15.36278992,
        "meta_eccentricity": 0.00029894,
        "meta_inclination": 51.8739,
        "meta_ra_of_asc_node": 58.0857,
        "meta_arg_of_pericenter": 90.7518,
        "meta_mean_anomaly": 269.3811,
        "meta_ephemeris_type": 0,
        "meta_classification_type": "U",
        "meta_norad_cat_id": 67136,
        "meta_element_set_no": 999,
        "meta_rev_at_epoch": 268,
        "meta_bstar": 0.00072103633,
        "meta_mean_motion_dot": 0.00025599,
        "meta_mean_motion_ddot": 0,
        "tle_line1": "1 67136U 25301D   25360.62823281  .00025599  00000+0  72104-3 0  9998",
        "tle_line2": "2 67136  51.8739  58.0857 0002989  90.7518 269.3811 15.36278992  2687"
      },
      "geometry": {
        "type": "Point",
        "coordinates": [
          -127.04499164978365,
          5.122266055504706
        ]
      }
    },
    {
      "type": "Feature",
      "properties": {
        "norad_id": 67137,
        "name": "KUIPER-00181",
        "group": "last-30-days",
        "lat": 50.876730261572305,
        "lon": 162.14159485183535,
        "alt_km": 450.78089380098754,
        "timestamp": "2025-12-26T20:30:44.703909+00:00",
        "meta_object_name": "KUIPER-00181",
        "meta_object_id": "2025-301E",
        "meta_epoch": "2025-12-26T15:23:31.520256",
        "meta_mean_motion": 15.34461482,
        "meta_eccentricity": 0.00100746,
        "meta_inclination": 51.8642,
        "meta_ra_of_asc_node": 58.1763,
        "meta_arg_of_pericenter": 145.3243,
        "meta_mean_anomaly": 214.8401,
        "meta_ephemeris_type": 0,
        "meta_classification_type": "U",
        "meta_norad_cat_id": 67137,
        "meta_element_set_no": 999,
        "meta_rev_at_epoch": 266,
        "meta_bstar": 0.00087819153,
        "meta_mean_motion_dot": 0.00029538,
        "meta_mean_motion_ddot": 0,
        "tle_line1": "1 67137U 25301E   25360.64133704  .00029538  00000+0  87819-3 0  9991",
        "tle_line2": "2 67137  51.8642  58.1763 0010074 145.3243 214.8401 15.34461482  2668"
      },
      "geometry": {
        "type": "Point",
        "coordinates": [
          162.14159485183535,
          50.876730261572305
        ]
      }
    }
  ]
}